{
    "links": {
        "self": "http://www.neowsapp.com/rest/v1/neo/3749068?api_key=iIulBulltgU6a56xZRHN4H3l9WmuAYTsLGpBGhQ2"
    },
    "id": "3749068",
    "neo_reference_id": "3749068",
    "name": "(2016 GV2)",
    "designation": "2016 GV2",
    "nasa_jpl_url": "http://ssd.jpl.nasa.gov/sbdb.cgi?sstr=3749068",
    "absolute_magnitude_h": 24.2,
    "estimated_diameter": {
        "kilometers": {
            "estimated_diameter_min": 0.0384197891,
            "estimated_diameter_max": 0.0859092601
        },
        "meters": {
            "estimated_diameter_min": 38.4197891064,
            "estimated_diameter_max": 85.9092601232
        },
        "miles": {
            "estimated_diameter_min": 0.0238729428,
            "estimated_diameter_max": 0.0533815229
        },
        "feet": {
            "estimated_diameter_min": 126.0491808919,
            "estimated_diameter_max": 281.8545369825
        }
    },
    "is_potentially_hazardous_asteroid": false,
    "close_approach_data": [
        {
            "close_approach_date": "2016-04-08",
            "close_approach_date_full": "2016-Apr-08 21:48",
            "epoch_date_close_approach": 1460152080000,
            "relative_velocity": {
                "kilometers_per_second": "9.4864558009",
                "kilometers_per_hour": "34151.2408832405",
                "miles_per_hour": "21220.2529810335"
            },
            "miss_distance": {
                "astronomical": "0.1031889811",
                "lunar": "40.1405136479",
                "kilometers": "15436851.780030257",
                "miles": "9592014.9084692666"
            },
            "orbiting_body": "Earth"
        },
        {
            "close_approach_date": "2165-11-20",
            "close_approach_date_full": "2165-Nov-20 03:46",
            "epoch_date_close_approach": 6181587960000,
            "relative_velocity": {
                "kilometers_per_second": "4.9597304212",
                "kilometers_per_hour": "17855.02951647",
                "miles_per_hour": "11094.4209792755"
            },
            "miss_distance": {
                "astronomical": "0.9819556206",
                "lunar": "381.9807364134",
                "kilometers": "146898469.276288122",
                "miles": "91278476.1691032036"
            },
            "orbiting_body": "Juptr"
        }
    ],
    "orbital_data": {
        "orbit_id": "4",
        "orbit_determination_date": "2017-04-06 08:26:48",
        "first_observation_date": "2016-04-03",
        "last_observation_date": "2016-04-08",
        "data_arc_in_days": 5,
        "observations_used": 27,
        "orbit_uncertainty": "8",
        "minimum_orbit_intersection": ".0960026",
        "jupiter_tisserand_invariant": "3.104",
        "epoch_osculation": "2457482.5",
        "eccentricity": ".5950271612217545",
        "semi_major_axis": "2.617858738926545",
        "inclination": "11.8127645392426",
        "ascending_node_longitude": ".2764356861327593",
        "orbital_period": "1547.097694698328",
        "perihelion_distance": "1.060161685023521",
        "perihelion_argument": "212.5899681240032",
        "aphelion_distance": "4.17555579282957",
        "perihelion_time": "2457500.945977385869",
        "mean_anomaly": "355.707735922774",
        "mean_motion": ".2326937731428765",
        "equinox": "J2000",
        "orbit_class": {
            "orbit_class_type": "AMO",
            "orbit_class_description": "Near-Earth asteroid orbits similar to that of 1221 Amor",
            "orbit_class_range": "1.017 AU < q (perihelion) < 1.3 AU"
        }
    },
    "is_sentry_object": false
}